{
    "links": {
        "self": "http://www.neowsapp.com/rest/v1/neo/54053943?api_key=iIulBulltgU6a56xZRHN4H3l9WmuAYTsLGpBGhQ2"
    },
    "id": "54053943",
    "neo_reference_id": "54053943",
    "name": "(2020 RO4)",
    "designation": "2020 RO4",
    "nasa_jpl_url": "http://ssd.jpl.nasa.gov/sbdb.cgi?sstr=54053943",
    "absolute_magnitude_h": 25.528,
    "estimated_diameter": {
        "kilometers": {
            "estimated_diameter_min": 0.0208427479,
            "estimated_diameter_max": 0.0466058012
        },
        "meters": {
            "estimated_diameter_min": 20.8427479472,
            "estimated_diameter_max": 46.6058012479
        },
        "miles": {
            "estimated_diameter_min": 0.0129510791,
            "estimated_diameter_max": 0.0289594933
        },
        "feet": {
            "estimated_diameter_min": 68.3817211752,
            "estimated_diameter_max": 152.9061769662
        }
    },
    "is_potentially_hazardous_asteroid": false,
    "close_approach_data": [
        {
            "close_approach_date": "2020-08-28",
            "close_approach_date_full": "2020-Aug-28 20:11",
            "epoch_date_close_approach": 1598645460000,
            "relative_velocity": {
                "kilometers_per_second": "15.0293599948",
                "kilometers_per_hour": "54105.6959813632",
                "miles_per_hour": "33619.1753724198"
            },
            "miss_distance": {
                "astronomical": "0.0319221768",
                "lunar": "12.4177267752",
                "kilometers": "4775489.655043416",
                "miles": "2967351.6737185008"
            },
            "orbiting_body": "Earth"
        }
    ],
    "orbital_data": {
        "orbit_id": "2",
        "orbit_determination_date": "2020-11-01 05:40:54",
        "first_observation_date": "2020-09-08",
        "last_observation_date": "2020-09-14",
        "data_arc_in_days": 6,
        "observations_used": 20,
        "orbit_uncertainty": "8",
        "minimum_orbit_intersection": ".0163915",
        "jupiter_tisserand_invariant": "3.302",
        "epoch_osculation": "2459104.5",
        "eccentricity": ".6262809471600573",
        "semi_major_axis": "2.293169919185208",
        "inclination": "4.058006496839883",
        "ascending_node_longitude": "166.0602836165639",
        "orbital_period": "1268.389917820234",
        "perihelion_distance": ".8570012901989437",
        "perihelion_argument": "113.7744640403636",
        "aphelion_distance": "3.729338548171472",
        "perihelion_time": "2459051.585134637995",
        "mean_anomaly": "15.01852960409735",
        "mean_motion": ".2838243941726301",
        "equinox": "J2000",
        "orbit_class": {
            "orbit_class_type": "APO",
            "orbit_class_description": "Near-Earth asteroid orbits which cross the Earth’s orbit similar to that of 1862 Apollo",
            "orbit_class_range": "a (semi-major axis) > 1.0 AU; q (perihelion) < 1.017 AU"
        }
    },
    "is_sentry_object": false
}